CALSPHERE 1             
1 00900U 64063C   22304.80625222  .00000722  00000+0  75854-3 0  9998
2 00900  90.1840  43.4367 0025242 334.3070 123.5615 13.73947691889384
CALSPHERE 2             
1 00902U 64063E   22304.54684119  .00000082  00000+0  11025-3 0  9990
2 00902  90.1988  46.6039 0020290 111.0403 261.2311 13.52726033677175
LCS 1                   
1 01361U 65034C   22304.84257634 -.00000001  00000+0 -11633-2 0  9997
2 01361  32.1408  81.4508 0011957   0.1493 359.9007  9.89302139 78739
TEMPSAT 1               
1 01512U 65065E   22304.59264101  .00000081  00000+0  14373-3 0  9999
2 01512  89.9252 217.5705 0070487   9.7703 108.0593 13.33459786783514
CALSPHERE 4A            
1 01520U 65065H   22305.05565020  .00000113  00000+0  20221-3 0  9999
2 01520  89.9799 130.0305 0067754 237.7187 246.0187 13.35912788786306
OPS 5712 (P/L 160)      
1 02826U 67053A   22304.83265730  .00003713  00000+0  94751-3 0  9996
2 02826  69.9289 329.0071 0005055 209.7368 150.3479 14.51266581872516
OPS 5712 (P/L 153)      
1 02874U 67053H   22304.66670794  .00000058  00000+0  80491-4 0  9996
2 02874  69.9740  73.3775 0004821 129.6468 230.5064 13.96424926821840
SURCAL 150B             
1 02909U 67053J   22304.78680420  .00006888  00000+0  12909-2 0  9999
2 02909  69.9470 311.7854 0005648 244.0967 115.9593 14.65148933883579
RIGIDSPHERE 2 (LCS 4)   
1 05398U 71067E   22304.80242013  .00000691  00000+0  23487-3 0  9999
2 05398  87.6239 345.4021 0060949 296.3960  63.0989 14.34370622683806
COSMOS 2493 (SKRL-756 1)
1 39490U 13078A   22305.48560728  .00002685  00000+0  27674-3 0  9995
2 39490  82.4154 102.8338 0017136   6.9131 353.2320 14.89802936480420
COSMOS 2494 (SKRL-756 2)
1 39491U 13078B   22305.52775799  .00002950  00000+0  29279-3 0  9995
2 39491  82.4156  96.2705 0020974 340.5634  19.4782 14.91281536480766
